COSMOS 2433 (720)       
1 32275U 07052A   22233.79324669 -.00000085  00000+0  00000+0 0  9993
2 32275  66.0807   2.5030 0002581 190.8517 156.4762  2.13104162115351
COSMOS 2432 (719)       
1 32276U 07052B   22233.83795063 -.00000085  00000+0  00000+0 0  9999
2 32276  66.0952   2.6032 0007669 334.4759 355.2981  2.13103364115357
COSMOS 2434 (721)       
1 32393U 07065A   22233.63596215  .00000091  00000+0  00000+0 0  9995
2 32393  64.3762 239.2005 0000688 174.5832 301.8771  2.13103112114066
COSMOS 2436 (723)       
1 32395U 07065C   22231.64438727  .00000084  00000+0  00000+0 0  9991
2 32395  64.3849 239.3270 0014773 350.6150 173.8109  2.13102924113958
COSMOS 2456 (730)       
1 36111U 09070A   22231.66686133 -.00000040  00000+0  00000+0 0  9990
2 36111  64.3670 118.8842 0003715 318.1445 252.3846  2.13099386 98686
COSMOS 2457 (733)       
1 36112U 09070B   22233.80671263 -.00000031  00000+0  00000+0 0  9997
2 36112  64.3510 118.6837 0004744 161.8603  18.0767  2.13101567 98734
COSMOS 2461 (735)       
1 36401U 10007B   22233.96320580 -.00000086  00000+0  00000+0 0  9990
2 36401  65.9648   1.3267 0019168  12.6246 322.4338  2.13103710 97086
COSMOS 2460 (732)       
1 36402U 10007C   22233.59901455 -.00000086  00000+0  00000+0 0  9996
2 36402  65.9520   1.2876 0002308 119.5078 245.2051  2.13106422 97086
COSMOS 2464 (736)       
1 37139U 10041C   22233.86843487  .00000089  00000+0  00000+0 0  9994
2 37139  63.9753 238.2360 0028002   5.6556 146.8913  2.13100775 93146
COSMOS 2476 (744)       
1 37867U 11064A   22232.86396823 -.00000038  00000+0  00000+0 0  9999
2 37867  64.6555 120.2241 0021306 236.2933  78.6484  2.13101884 84058
COSMOS 2477 (745)       
1 37868U 11064B   22233.86538920 -.00000031  00000+0  00000+0 0  9990
2 37868  64.6633 120.2547 0018550 237.4467 303.8345  2.13101748 84033
COSMOS 2475 (743)       
1 37869U 11064C   22233.43764260 -.00000035  00000+0  00000+0 0  9996
2 37869  64.6697 120.2781 0022724 255.4618 275.7633  2.13102160 84036
COSMOS 2485 (747)       
1 39155U 13019A   22233.65813762 -.00000033  00000+0  00000+0 0  9992
2 39155  64.8186 120.6395 0021710 232.1475  16.4539  2.13102042 72540
COSMOS 2492 (754)       
1 39620U 14012A   22233.85549623 -.00000087  00000+0  00000+0 0  9996
2 39620  65.8367   0.9512 0010859 324.9757 109.4375  2.13103166 65502
COSMOS 2500 (755)       
1 40001U 14032A   22233.89827807 -.00000087  00000+0  00000+0 0  9990
2 40001  65.7763   0.8056 0007063 183.4148 142.3111  2.13102341 63712
COSMOS 2501 (702K)      
1 40315U 14075A   22233.96205655  .00000089  00000+0  00000+0 0  9995
2 40315  63.6823 238.8766 0019541 212.3090 330.6635  2.13101430 60120
COSMOS 2514 (751)       
1 41330U 16008A   22232.76460578 -.00000087  00000+0  00000+0 0  9994
2 41330  65.5767   0.5206 0010826 202.0052 157.9551  2.13102824 50865
COSMOS 2516 (753)       
1 41554U 16032A   22233.42439247  .00000090  00000+0  00000+0 0  9995
2 41554  63.9087 239.1896 0015051 216.4478 193.7386  2.13106404 48488
COSMOS 2522 (752)       
1 42939U 17055A   22233.60967332  .00000090  00000+0  00000+0 0  9990
2 42939  64.1420 239.5971 0010157 243.9180 164.1206  2.13101990 38246
COSMOS 2527 (756)       
1 43508U 18053A   22233.78474112 -.00000032  00000+0  00000+0 0  9997
2 43508  64.9809 120.6487 0007699 229.8870 344.5496  2.13102570 32532
COSMOS 2529 (757)       
1 43687U 18086A   22232.85331431  .00000090  00000+0  00000+0 0  9997
2 43687  64.3571 239.9571 0011922 262.8589 240.4568  2.13102135 29533
COSMOS 2534 (758)       
1 44299U 19030A   22233.45240402  .00000091  00000+0  00000+0 0  9992
2 44299  64.4302 239.8275 0014152 281.1709  96.2748  2.13101919 25196
COSMOS 2544 (759)       
1 44850U 19088A   22233.69007596 -.00000032  00000+0  16595+1 0  9992
2 44850  64.9668 120.5025 0012044 259.1946 286.0291  2.13102311 20963
COSMOS 2545 (760)       
1 45358U 20018A   22233.60104862 -.00000088  00000+0  00000+0 0  9990
2 45358  64.9152   1.0466 0007808 233.6896  92.6381  2.13102745 18914
COSMOS 2547 (705K)      
1 46805U 20075A   22233.60261668  .00000091  00000+0  00000+0 0  9992
2 46805  64.6542 239.2660 0008712 245.8297 294.7729  2.13103013 14161
COSMOS 2557 (706K)      
1 52984U 22075A   22233.96292074 -.00000086  00000+0  10000-3 0  9993
2 52984  64.8194   3.2357 0010559 279.4907  55.5964  2.13101714   969
